NORAD_CAT_ID,OBJECT_NAME,OBJECT_TYPE,EPOCH,MEAN_MOTION,ECCENTRICITY,INCLINATION,RA_OF_ASC_NODE,ARG_OF_PERICENTER,MEAN_ANOMALY,BSTAR,MEAN_MOTION_DOT,MEAN_MOTION_DDOT,TLE_LINE0,TLE_LINE1,TLE_LINE2,SEMIMAJOR_AXIS,PERIOD,APOGEE,PERIGEE,DECAYED
53242.0,STARLINK-4056,PAYLOAD,2023-04-17 17:03:34,15.08845076,0.0001232,53.2163,264.0747,83.129,276.9843,6.8013e-05,7.95e-06,0.0,0 STARLINK-4056,1 53242U 22086A   23107.71081845  .00000795  00000-0  68013-4 0  9994,2 53242  53.2163 264.0747 0001232  83.1290 276.9843 15.08845076 41748,6917.865,95.437,540.582,538.878,0.0
53242.0,STARLINK-4056,PAYLOAD,2023-04-17 21:49:43,15.08853921,0.0001336,53.217,263.1795,89.2338,270.8807,0.00011405,1.528e-05,0.0,0 STARLINK-4056,1 53242U 22086A   23107.90953289  .00001528  00000-0  11405-3 0  9992,2 53242  53.2170 263.1795 0001336  89.2338 270.8807 15.08853921 41273,6917.838,95.437,540.627,538.779,0.0
53242.0,STARLINK-4056,PAYLOAD,2023-04-18 10:32:49,15.08840091,0.0001934,53.2146,260.8011,88.8525,271.2688,-0.00013154,-2.381e-05,0.0,0 STARLINK-4056,1 53242U 22086A   23108.43946035 -.00002381  00000-0 -13154-3 0  9995,2 53242  53.2146 260.8011 0001934  88.8525 271.2688 15.08840091 41858,6917.88,95.438,541.083,538.407,0.0
53242.0,STARLINK-4056,PAYLOAD,2023-04-18 16:54:22,15.0883945,0.0001285,53.216,259.6131,97.931,262.1828,9.9806e-05,1.301e-05,0.0,0 STARLINK-4056,1 53242U 22086A   23108.70442247  .00001301  00000-0  99806-4 0  9999,2 53242  53.2160 259.6131 0001285  97.9310 262.1828 15.08839450 41396,6917.882,95.438,540.636,538.858,0.0
53242.0,STARLINK-4056,PAYLOAD,2023-04-19 10:23:37,15.0883181,0.0001051,53.2168,256.3425,85.8422,274.269,2.6015e-05,1.26e-06,0.0,0 STARLINK-4056,1 53242U 22086A   23109.43306870  .00000126  00000-0  26015-4 0  9997,2 53242  53.2168 256.3425 0001051  85.8422 274.2690 15.08831810 42007,6917.905,95.438,540.497,539.043,0.0
53242.0,STARLINK-4056,PAYLOAD,2023-04-19 16:45:09,15.08846295,0.0001426,53.2163,255.1524,82.195,277.9203,0.00023458,3.448e-05,0.0,0 STARLINK-4056,1 53242U 22086A   23109.69802270  .00003448  00000-0  23458-3 0  9997,2 53242  53.2163 255.1524 0001426  82.1950 277.9203 15.08846295 42048,6917.861,95.437,540.713,538.74,0.0
53242.0,STARLINK-4056,PAYLOAD,2023-04-20 02:17:27,15.08839633,7.36e-05,53.2162,253.3685,77.0319,283.0755,6.3818e-05,7.28e-06,0.0,0 STARLINK-4056,1 53242U 22086A   23110.09546142  .00000728  00000-0  63818-4 0  9999,2 53242  53.2162 253.3685 0000736  77.0319 283.0755 15.08839633 41609,6917.882,95.438,540.256,539.237,0.0
53242.0,STARLINK-4056,PAYLOAD,2023-04-20 08:39:00,15.0883827,0.00016,53.2164,252.178,74.091,286.0258,0.00017131,2.439e-05,0.0,0 STARLINK-4056,1 53242U 22086A   23110.36042769  .00002439  00000-0  17131-3 0  9992,2 53242  53.2164 252.1780 0001600  74.0910 286.0258 15.08838270 42146,6917.886,95.438,540.858,538.644,0.0
53242.0,STARLINK-4056,PAYLOAD,2023-04-20 19:46:42,15.08846877,0.0001287,53.2167,250.0973,71.6844,288.4288,0.00029619,4.43e-05,0.0,0 STARLINK-4056,1 53242U 22086A   23110.82410381  .00004430  00000-0  29619-3 0  9999,2 53242  53.2167 250.0973 0001287  71.6844 288.4288 15.08846877 42219,6917.859,95.437,540.615,538.834,0.0
53242.0,STARLINK-4056,PAYLOAD,2023-04-21 02:08:15,15.0883255,0.0001551,53.2162,248.906,72.3908,287.7253,-5.3563e-05,-1.14e-05,0.0,0 STARLINK-4056,1 53242U 22086A   23111.08906847 -.00001140  00000-0 -53563-4 0  9998,2 53242  53.2162 248.9060 0001551  72.3908 287.7253 15.08832550 42251,6917.903,95.438,540.841,538.695,0.0
53242.0,STARLINK-4056,PAYLOAD,2023-04-21 13:15:57,15.08844977,0.0001359,53.2161,246.826,80.0522,280.0624,0.00070909,0.00011017,0.0,0 STARLINK-4056,1 53242U 22086A   23111.55274816  .00011017  00000-0  70909-3 0  9998,2 53242  53.2161 246.8260 0001359  80.0522 280.0624 15.08844977 41829,6917.865,95.437,540.67,538.79,0.0
53242.0,STARLINK-4056,PAYLOAD,2023-04-21 16:26:43,15.08848806,0.0001434,53.216,246.2316,69.9461,290.1685,0.0013434,0.00021162,0.0,0 STARLINK-4056,1 53242U 22086A   23111.68522848  .00021162  00000-0  13434-2 0  9994,2 53242  53.2160 246.2316 0001434  69.9461 290.1685 15.08848806 41842,6917.853,95.437,540.71,538.726,0.0
53242.0,STARLINK-4056,PAYLOAD,2023-04-23 01:49:49,15.08844942,0.0001163,53.2167,239.9867,82.5663,277.5462,0.00017899,2.562e-05,0.0,0 STARLINK-4056,1 53242U 22086A   23113.07626540  .00002562  00000-0  17899-3 0  9996,2 53242  53.2167 239.9867 0001163  82.5663 277.5462 15.08844942 42056,6917.865,95.437,540.535,538.926,0.0
53242.0,STARLINK-4056,PAYLOAD,2023-04-23 17:43:41,15.08837521,0.0001236,53.2168,237.0135,81.1178,278.9954,3.4414e-05,2.6e-06,0.0,0 STARLINK-4056,1 53242U 22086A   23113.73866957  .00000260  00000-0  34414-4 0  9993,2 53242  53.2168 237.0135 0001236  81.1178 278.9954 15.08837521 42158,6917.888,95.438,540.608,538.898,0.0
53242.0,STARLINK-4056,PAYLOAD,2023-04-23 20:54:27,15.08841833,8.01e-05,53.2158,236.4184,72.7505,287.3575,0.00011294,1.51e-05,0.0,0 STARLINK-4056,1 53242U 22086A   23113.87114746  .00001510  00000-0  11294-3 0  9999,2 53242  53.2158 236.4184 0000801  72.7505 287.3575 15.08841833 42672,6917.875,95.437,540.294,539.186,0.0
53242.0,STARLINK-4056,PAYLOAD,2023-04-24 01:40:36,15.08848686,3.12e-05,53.2156,235.5274,87.6335,272.4693,0.0002555,3.782e-05,0.0,0 STARLINK-4056,1 53242U 22086A   23114.06986327  .00003782  00000-0  25550-3 0  9996,2 53242  53.2156 235.5274 0000312  87.6335 272.4693 15.08848686 42201,6917.854,95.437,539.935,539.503,0.0
53242.0,STARLINK-4056,PAYLOAD,2023-04-24 08:02:08,15.08862836,3.37e-05,53.2169,234.3364,91.8746,268.2285,0.0004815,7.388e-05,0.0,0 STARLINK-4056,1 53242U 22086A   23114.33481962  .00007388  00000-0  48150-3 0  9998,2 53242  53.2169 234.3364 0000337  91.8746 268.2285 15.08862836 42744,6917.811,95.436,539.909,539.442,0.0
53242.0,STARLINK-4056,PAYLOAD,2023-04-24 19:09:49,15.0888494,0.0001896,53.2134,232.2564,77.0786,283.0418,0.00090684,0.00014192,0.0,0 STARLINK-4056,1 53242U 22086A   23114.79848701  .00014192  00000-0  90684-3 0  9996,2 53242  53.2134 232.2564 0001896  77.0786 283.0418 15.08884940 42312,6917.743,95.435,540.92,538.296,0.0
53242.0,STARLINK-4056,PAYLOAD,2023-04-25 11:03:41,15.08816736,0.000126,53.2177,229.2795,123.9414,236.1698,-0.00092178,-0.00014918,0.0,0 STARLINK-4056,1 53242U 22086A   23115.46090012 -.00014918  00000-0 -92178-3 0  9993,2 53242  53.2177 229.2795 0001260 123.9414 236.1698 15.08816736 42413,6917.951,95.439,540.688,538.945,0.0
53242.0,STARLINK-4056,PAYLOAD,2023-04-26 12:29:53,15.08831619,0.0001378,53.218,224.5312,41.1286,318.981,0.0002206,3.224e-05,0.0,0 STARLINK-4056,1 53242U 22086A   23116.52075634  .00003224  00000-0  22060-3 0  9993,2 53242  53.2180 224.5312 0001378  41.1286 318.9810 15.08831619 42577,6917.906,95.438,540.724,538.818,0.0
53242.0,STARLINK-4056,PAYLOAD,2023-04-26 18:51:25,15.08847891,0.0001298,53.2151,223.3332,108.1539,251.9595,0.00077386,0.00012052,0.0,0 STARLINK-4056,1 53242U 22086A   23116.78570945  .00012052  00000-0  77386-3 0  9996,2 53242  53.2151 223.3332 0001298 108.1539 251.9595 15.08847891 43116,6917.856,95.437,540.619,538.823,0.0
53242.0,STARLINK-4056,PAYLOAD,2023-04-27 12:20:40,15.08840822,9.36e-05,53.2167,220.0648,107.3629,252.7465,0.00031846,4.784e-05,0.0,0 STARLINK-4056,1 53242U 22086A   23117.51435685  .00004784  00000-0  31846-3 0  9993,2 53242  53.2167 220.0648 0000936 107.3629 252.7465 15.08840822 43220,6917.878,95.438,540.39,539.095,0.0
53242.0,STARLINK-4056,PAYLOAD,2023-04-27 17:06:49,15.08849822,0.0001027,53.2168,219.1733,101.9299,258.1808,0.00044123,6.743e-05,0.0,0 STARLINK-4056,1 53242U 22086A   23117.71307418  .00006743  00000-0  44123-3 0  9996,2 53242  53.2168 219.1733 0001027 101.9299 258.1808 15.08849822 42757,6917.85,95.437,540.426,539.005,0.0
53242.0,STARLINK-4056,PAYLOAD,2023-04-27 23:28:22,15.08843337,0.000111,53.2171,217.9887,99.6301,260.4816,4.861e-05,4.86e-06,0.0,0 STARLINK-4056,1 53242U 22086A   23117.97803539  .00000486  00000-0  48610-4 0  9993,2 53242  53.2171 217.9887 0001110  99.6301 260.4816 15.08843337 42791,6917.87,95.437,540.503,538.967,0.0
53242.0,STARLINK-4056,PAYLOAD,2023-04-28 13:46:50,15.08841145,0.0001135,53.2177,215.3102,103.5058,256.6061,6.7792e-05,7.91e-06,0.0,0 STARLINK-4056,1 53242U 22086A   23118.57419672  .00000791  00000-0  67792-4 0  9992,2 53242  53.2177 215.3102 0001135 103.5058 256.6061 15.08841145 43380,6917.877,95.437,540.527,538.957,0.0
53242.0,STARLINK-4056,PAYLOAD,2023-04-29 05:40:42,15.08841246,0.0001026,53.2163,212.3338,90.7519,269.3591,0.00022308,3.264e-05,0.0,0 STARLINK-4056,1 53242U 22086A   23119.23659769  .00003264  00000-0  22308-3 0  9990,2 53242  53.2163 212.3338 0001026  90.7519 269.3591 15.08841246 42987,6917.877,95.437,540.451,539.032,0.0
53242.0,STARLINK-4056,PAYLOAD,2023-04-29 13:37:37,15.08848332,0.0001009,53.2161,210.8472,82.6763,277.4343,0.00030924,4.638e-05,0.0,0 STARLINK-4056,1 53242U 22086A   23119.56779491  .00004638  00000-0  30924-3 0  9990,2 53242  53.2161 210.8472 0001009  82.6763 277.4343 15.08848332 43539,6917.855,95.437,540.418,539.022,0.0
53242.0,STARLINK-4056,PAYLOAD,2023-04-29 18:23:46,15.08860336,0.0001108,53.2155,209.9533,80.7447,279.367,0.00071579,0.00011129,0.0,0 STARLINK-4056,1 53242U 22086A   23119.76651160  .00011129  00000-0  71579-3 0  9998,2 53242  53.2155 209.9533 0001108  80.7447 279.3670 15.08860336 43067,6917.818,95.436,540.45,538.917,0.0
53242.0,STARLINK-4056,PAYLOAD,2023-04-30 11:53:01,15.08846001,0.0001081,53.2149,206.6835,82.305,277.8065,0.00017451,2.491e-05,0.0,0 STARLINK-4056,1 53242U 22086A   23120.49515328  .00002491  00000-0  17451-3 0  9996,2 53242  53.2149 206.6835 0001081  82.3050 277.8065 15.08846001 43173,6917.862,95.437,540.475,538.979,0.0
53242.0,STARLINK-4056,PAYLOAD,2023-04-30 18:14:33,15.08854548,0.000105,53.2146,205.4928,100.3705,259.7406,0.00039034,5.932e-05,0.0,0 STARLINK-4056,1 53242U 22086A   23120.76010885  .00005932  00000-0  39034-3 0  9998,2 53242  53.2146 205.4928 0001050 100.3705 259.7406 15.08854548 43212,6917.836,95.437,540.427,538.975,0.0
